{"fetched_at":"2026-07-24T07:06:36.888Z","source":"https://celestrak.org/NORAD/elements/gp.php?NAME=JILIN&FORMAT=JSON","constellation":"jilin-1-kuanfu","records":[{"OBJECT_NAME":"JILIN-1 KUANFU 01","OBJECT_ID":"2020-003A","EPOCH":"2026-07-23T20:17:00.803616","CLASSIFICATION_TYPE":"U","MEAN_MOTION":15.10902854,"ECCENTRICITY":0.0010119,"INCLINATION":97.5012,"RA_OF_ASC_NODE":278.0858,"ARG_OF_PERICENTER":167.1063,"MEAN_ANOMALY":193.0428,"EPHEMERIS_TYPE":0,"NORAD_CAT_ID":45016,"ELEMENT_SET_NO":999,"REV_AT_EPOCH":36086,"BSTAR":0.00015965,"MEAN_MOTION_DOT":0.00002598,"MEAN_MOTION_DDOT":0},{"OBJECT_NAME":"JILIN-1 KUANFU-01B","OBJECT_ID":"2021-061A","EPOCH":"2026-07-23T21:21:31.127040","CLASSIFICATION_TYPE":"U","MEAN_MOTION":15.0983722,"ECCENTRICITY":0.000539,"INCLINATION":97.5196,"RA_OF_ASC_NODE":280.3997,"ARG_OF_PERICENTER":301.0435,"MEAN_ANOMALY":59.0264,"EPHEMERIS_TYPE":0,"NORAD_CAT_ID":49003,"ELEMENT_SET_NO":999,"REV_AT_EPOCH":27888,"BSTAR":0.00014668,"MEAN_MOTION_DOT":0.0000231,"MEAN_MOTION_DDOT":0},{"OBJECT_NAME":"JILIN-1 KUANFU 01C","OBJECT_ID":"2022-048A","EPOCH":"2026-07-23T19:36:07.094592","CLASSIFICATION_TYPE":"U","MEAN_MOTION":15.09635373,"ECCENTRICITY":0.0018094,"INCLINATION":97.5245,"RA_OF_ASC_NODE":281.3205,"ARG_OF_PERICENTER":189.4598,"MEAN_ANOMALY":170.6293,"EPHEMERIS_TYPE":0,"NORAD_CAT_ID":52443,"ELEMENT_SET_NO":999,"REV_AT_EPOCH":23272,"BSTAR":0.00019468,"MEAN_MOTION_DOT":0.00003079,"MEAN_MOTION_DDOT":0},{"OBJECT_NAME":"JILIN-1 KUANFU 02A","OBJECT_ID":"2023-127A","EPOCH":"2026-07-23T19:53:51.952128","CLASSIFICATION_TYPE":"U","MEAN_MOTION":15.10864019,"ECCENTRICITY":0.001097,"INCLINATION":97.5562,"RA_OF_ASC_NODE":298.1864,"ARG_OF_PERICENTER":204.6947,"MEAN_ANOMALY":155.3759,"EPHEMERIS_TYPE":0,"NORAD_CAT_ID":57696,"ELEMENT_SET_NO":999,"REV_AT_EPOCH":16116,"BSTAR":0.00025172,"MEAN_MOTION_DOT":0.00004129,"MEAN_MOTION_DDOT":0},{"OBJECT_NAME":"JILIN-01 KUANFU 02B 1","OBJECT_ID":"2024-169A","EPOCH":"2026-07-23T20:28:07.250880","CLASSIFICATION_TYPE":"U","MEAN_MOTION":15.09102119,"ECCENTRICITY":0.0000988,"INCLINATION":97.5573,"RA_OF_ASC_NODE":293.8151,"ARG_OF_PERICENTER":281.0136,"MEAN_ANOMALY":79.0981,"EPHEMERIS_TYPE":0,"NORAD_CAT_ID":61189,"ELEMENT_SET_NO":999,"REV_AT_EPOCH":10135,"BSTAR":0.00024716,"MEAN_MOTION_DOT":0.00003855,"MEAN_MOTION_DDOT":0},{"OBJECT_NAME":"JILIN-01 KUANFU 02B 2","OBJECT_ID":"2024-169B","EPOCH":"2026-07-23T19:59:05.258400","CLASSIFICATION_TYPE":"U","MEAN_MOTION":15.09063579,"ECCENTRICITY":0.0004945,"INCLINATION":97.5565,"RA_OF_ASC_NODE":293.1789,"ARG_OF_PERICENTER":239.2974,"MEAN_ANOMALY":120.7767,"EPHEMERIS_TYPE":0,"NORAD_CAT_ID":61190,"ELEMENT_SET_NO":999,"REV_AT_EPOCH":10135,"BSTAR":0.00021185,"MEAN_MOTION_DOT":0.00003292,"MEAN_MOTION_DDOT":0},{"OBJECT_NAME":"JILIN-01 KUANFU 02B 3","OBJECT_ID":"2024-169C","EPOCH":"2026-07-23T20:11:40.230240","CLASSIFICATION_TYPE":"U","MEAN_MOTION":15.09104089,"ECCENTRICITY":0.0013913,"INCLINATION":97.5563,"RA_OF_ASC_NODE":293.6205,"ARG_OF_PERICENTER":175.3797,"MEAN_ANOMALY":184.7563,"EPHEMERIS_TYPE":0,"NORAD_CAT_ID":61191,"ELEMENT_SET_NO":999,"REV_AT_EPOCH":10135,"BSTAR":0.00023017,"MEAN_MOTION_DOT":0.00003593,"MEAN_MOTION_DDOT":0},{"OBJECT_NAME":"JILIN-01 KUANFU 02B 4","OBJECT_ID":"2024-169D","EPOCH":"2026-07-23T19:26:48.884064","CLASSIFICATION_TYPE":"U","MEAN_MOTION":15.0908816,"ECCENTRICITY":0.0014609,"INCLINATION":97.552,"RA_OF_ASC_NODE":293.1118,"ARG_OF_PERICENTER":136.4052,"MEAN_ANOMALY":223.8334,"EPHEMERIS_TYPE":0,"NORAD_CAT_ID":61192,"ELEMENT_SET_NO":999,"REV_AT_EPOCH":10135,"BSTAR":0.00025439,"MEAN_MOTION_DOT":0.00003977,"MEAN_MOTION_DDOT":0},{"OBJECT_NAME":"JILIN-01 KUANFU 02B 5","OBJECT_ID":"2024-169E","EPOCH":"2026-07-23T20:43:22.499040","CLASSIFICATION_TYPE":"U","MEAN_MOTION":15.09120102,"ECCENTRICITY":0.0013942,"INCLINATION":97.5572,"RA_OF_ASC_NODE":293.9669,"ARG_OF_PERICENTER":158.8018,"MEAN_ANOMALY":201.3791,"EPHEMERIS_TYPE":0,"NORAD_CAT_ID":61193,"ELEMENT_SET_NO":999,"REV_AT_EPOCH":10136,"BSTAR":0.00028228,"MEAN_MOTION_DOT":0.00004423,"MEAN_MOTION_DDOT":0},{"OBJECT_NAME":"JILIN-01 KUANFU 02B 6","OBJECT_ID":"2024-169F","EPOCH":"2026-07-23T19:42:15.071328","CLASSIFICATION_TYPE":"U","MEAN_MOTION":15.09077629,"ECCENTRICITY":0.0016395,"INCLINATION":97.5549,"RA_OF_ASC_NODE":293.8149,"ARG_OF_PERICENTER":190.5791,"MEAN_ANOMALY":169.5095,"EPHEMERIS_TYPE":0,"NORAD_CAT_ID":61194,"ELEMENT_SET_NO":999,"REV_AT_EPOCH":10136,"BSTAR":0.00020589,"MEAN_MOTION_DOT":0.00003207,"MEAN_MOTION_DDOT":0}]}
