JILIN-1 KUANFU 01       
1 45016U 20003A   26204.84514819  .00002598  00000+0  15965-3 0  9997
2 45016  97.5012 278.0858 0010119 167.1063 193.0428 15.10902854360861
JILIN-1 KUANFU-01B      
1 49003U 21061A   26204.88994360  .00002310  00000+0  14668-3 0  9990
2 49003  97.5196 280.3997 0005390 301.0435  59.0264 15.09837220278882
JILIN-1 KUANFU 01C      
1 52443U 22048A   26204.81674878  .00003079  00000+0  19468-3 0  9996
2 52443  97.5245 281.3205 0018094 189.4598 170.6293 15.09635373232725
JILIN-1 KUANFU 02A      
1 57696U 23127A   26204.82907352  .00004129  00000+0  25172-3 0  9993
2 57696  97.5562 298.1864 0010970 204.6947 155.3759 15.10864019161161
JILIN-01 KUANFU 02B 1   
1 61189U 24169A   26204.85286170  .00003855  00000+0  24716-3 0  9991
2 61189  97.5573 293.8151 0000988 281.0136  79.0981 15.09102119101351
JILIN-01 KUANFU 02B 2   
1 61190U 24169B   26204.83269975  .00003292  00000+0  21185-3 0  9997
2 61190  97.5565 293.1789 0004945 239.2974 120.7767 15.09063579101358
JILIN-01 KUANFU 02B 3   
1 61191U 24169C   26204.84143785  .00003593  00000+0  23017-3 0  9999
2 61191  97.5563 293.6205 0013913 175.3797 184.7563 15.09104089101359
JILIN-01 KUANFU 02B 4   
1 61192U 24169D   26204.81028801  .00003977  00000+0  25439-3 0  9994
2 61192  97.5520 293.1118 0014609 136.4052 223.8334 15.09088160101358
JILIN-01 KUANFU 02B 5   
1 61193U 24169E   26204.86345485  .00004423  00000+0  28228-3 0  9996
2 61193  97.5572 293.9669 0013942 158.8018 201.3791 15.09120102101366
JILIN-01 KUANFU 02B 6   
1 61194U 24169F   26204.82100777  .00003207  00000+0  20589-3 0  9997
2 61194  97.5549 293.8149 0016395 190.5791 169.5095 15.09077629101366
